STARLINK-30878          
1 58359U 23177J   26068.19178740 -.00000987  00000+0 -58001-4 0  9992
2 58359  43.0075 354.0522 0001240 273.5334  86.5367 15.02536419128143
PICO-02A021             
1 60538U 24149BY  26068.15390193  .00008488  00000+0  64833-3 0  9999
2 60538  97.6823 147.9080 0004195   9.5557 350.5747 15.02201963 84718
