[{"OBJECT_NAME":"STARLINK-30878","OBJECT_ID":"2023-177J","EPOCH":"2026-03-09T04:36:10.431360","MEAN_MOTION":15.02536419,"ECCENTRICITY":0.00012405,"INCLINATION":43.0075,"RA_OF_ASC_NODE":354.0522,"ARG_OF_PERICENTER":273.5334,"MEAN_ANOMALY":86.5367,"EPHEMERIS_TYPE":0,"CLASSIFICATION_TYPE":"U","NORAD_CAT_ID":58359,"ELEMENT_SET_NO":999,"REV_AT_EPOCH":12814,"BSTAR":-5.8001014e-5,"MEAN_MOTION_DOT":-9.87e-6,"MEAN_MOTION_DDOT":0},{"OBJECT_NAME":"PICO-02A021","OBJECT_ID":"2024-149BY","EPOCH":"2026-03-09T03:41:37.126752","MEAN_MOTION":15.02201963,"ECCENTRICITY":0.00041954,"INCLINATION":97.6823,"RA_OF_ASC_NODE":147.908,"ARG_OF_PERICENTER":9.5557,"MEAN_ANOMALY":350.5747,"EPHEMERIS_TYPE":0,"CLASSIFICATION_TYPE":"U","NORAD_CAT_ID":60538,"ELEMENT_SET_NO":999,"REV_AT_EPOCH":8471,"BSTAR":0.00064833457,"MEAN_MOTION_DOT":8.488e-5,"MEAN_MOTION_DDOT":0}]
